[{"OBJECT_NAME":"METEOSAT-11 (MSG-4)","OBJECT_ID":"2015-034A","EPOCH":"2026-03-28T19:57:48.575808","MEAN_MOTION":1.00273826,"ECCENTRICITY":0.00017798,"INCLINATION":2.9995,"RA_OF_ASC_NODE":71.5348,"ARG_OF_PERICENTER":284.88,"MEAN_ANOMALY":138.506,"EPHEMERIS_TYPE":0,"CLASSIFICATION_TYPE":"U","NORAD_CAT_ID":40732,"ELEMENT_SET_NO":999,"REV_AT_EPOCH":641,"BSTAR":0,"MEAN_MOTION_DOT":4.5e-7,"MEAN_MOTION_DDOT":0},{"OBJECT_NAME":"ELEKTRO-L 2","OBJECT_ID":"2015-074A","EPOCH":"2026-03-28T18:08:23.507232","MEAN_MOTION":1.00271736,"ECCENTRICITY":0.00028675,"INCLINATION":6.4928,"RA_OF_ASC_NODE":71.4977,"ARG_OF_PERICENTER":245.3679,"MEAN_ANOMALY":126.9051,"EPHEMERIS_TYPE":0,"CLASSIFICATION_TYPE":"U","NORAD_CAT_ID":41105,"ELEMENT_SET_NO":999,"REV_AT_EPOCH":3770,"BSTAR":0,"MEAN_MOTION_DOT":-1.32e-6,"MEAN_MOTION_DDOT":0},{"OBJECT_NAME":"INSAT-3DR","OBJECT_ID":"2016-054A","EPOCH":"2026-03-28T21:17:38.519232","MEAN_MOTION":1.00271749,"ECCENTRICITY":0.00127135,"INCLINATION":0.1118,"RA_OF_ASC_NODE":87.6678,"ARG_OF_PERICENTER":195.0765,"MEAN_ANOMALY":296.9383,"EPHEMERIS_TYPE":0,"CLASSIFICATION_TYPE":"U","NORAD_CAT_ID":41752,"ELEMENT_SET_NO":999,"REV_AT_EPOCH":3501,"BSTAR":0,"MEAN_MOTION_DOT":-9.6e-7,"MEAN_MOTION_DDOT":0},{"OBJECT_NAME":"HIMAWARI-9","OBJECT_ID":"2016-064A","EPOCH":"2026-03-28T22:17:57.740064","MEAN_MOTION":1.00272924,"ECCENTRICITY":0.00010301,"INCLINATION":0.028,"RA_OF_ASC_NODE":132.098,"ARG_OF_PERICENTER":233.0858,"MEAN_ANOMALY":296.407,"EPHEMERIS_TYPE":0,"CLASSIFICATION_TYPE":"U","NORAD_CAT_ID":41836,"ELEMENT_SET_NO":999,"REV_AT_EPOCH":3440,"BSTAR":0,"MEAN_MOTION_DOT":-2.94e-6,"MEAN_MOTION_DDOT":0},{"OBJECT_NAME":"GOES 16","OBJECT_ID":"2016-071A","EPOCH":"2026-03-28T15:59:58.320672","MEAN_MOTION":1.00271531,"ECCENTRICITY":0.00021883,"INCLINATION":0.1579,"RA_OF_ASC_NODE":85.4996,"ARG_OF_PERICENTER":233.0864,"MEAN_ANOMALY":2.7816,"EPHEMERIS_TYPE":0,"CLASSIFICATION_TYPE":"U","NORAD_CAT_ID":41866,"ELEMENT_SET_NO":999,"REV_AT_EPOCH":3429,"BSTAR":0,"MEAN_MOTION_DOT":-1.1e-6,"MEAN_MOTION_DDOT":0},{"OBJECT_NAME":"FENGYUN 4A","OBJECT_ID":"2016-077A","EPOCH":"2026-03-28T22:12:45.362592","MEAN_MOTION":1.00266103,"ECCENTRICITY":0.00074729,"INCLINATION":2.1192,"RA_OF_ASC_NODE":81.0805,"ARG_OF_PERICENTER":136.1134,"MEAN_ANOMALY":65.9933,"EPHEMERIS_TYPE":0,"CLASSIFICATION_TYPE":"U","NORAD_CAT_ID":41882,"ELEMENT_SET_NO":999,"REV_AT_EPOCH":3412,"BSTAR":0,"MEAN_MOTION_DOT":-3.75e-6,"MEAN_MOTION_DDOT":0},{"OBJECT_NAME":"CYGFM05","OBJECT_ID":"2016-078A","EPOCH":"2026-03-28T16:02:08.369952","MEAN_MOTION":15.53096635,"ECCENTRICITY":0.00056345,"INCLINATION":34.9579,"RA_OF_ASC_NODE":72.3676,"ARG_OF_PERICENTER":119.7594,"MEAN_ANOMALY":240.369,"EPHEMERIS_TYPE":0,"CLASSIFICATION_TYPE":"U","NORAD_CAT_ID":41884,"ELEMENT_SET_NO":999,"REV_AT_EPOCH":51621,"BSTAR":0.00044064906,"MEAN_MOTION_DOT":0.0002854,"MEAN_MOTION_DDOT":0},{"OBJECT_NAME":"CYGFM04","OBJECT_ID":"2016-078B","EPOCH":"2026-03-28T22:18:16.091424","MEAN_MOTION":15.57042136,"ECCENTRICITY":0.00056048,"INCLINATION":34.934,"RA_OF_ASC_NODE":41.9865,"ARG_OF_PERICENTER":172.5817,"MEAN_ANOMALY":187.4991,"EPHEMERIS_TYPE":0,"CLASSIFICATION_TYPE":"U","NORAD_CAT_ID":41885,"ELEMENT_SET_NO":999,"REV_AT_EPOCH":51646,"BSTAR":0.0004701552,"MEAN_MOTION_DOT":0.00035264,"MEAN_MOTION_DDOT":0},{"OBJECT_NAME":"CYGFM02","OBJECT_ID":"2016-078C","EPOCH":"2026-03-28T22:20:01.671360","MEAN_MOTION":15.59188724,"ECCENTRICITY":0.00065519,"INCLINATION":34.9424,"RA_OF_ASC_NODE":38.4568,"ARG_OF_PERICENTER":169.7386,"MEAN_ANOMALY":190.3474,"EPHEMERIS_TYPE":0,"CLASSIFICATION_TYPE":"U","NORAD_CAT_ID":41886,"ELEMENT_SET_NO":999,"REV_AT_EPOCH":51661,"BSTAR":0.00047343317,"MEAN_MOTION_DOT":0.00038539,"MEAN_MOTION_DDOT":0},{"OBJECT_NAME":"CYGFM01","OBJECT_ID":"2016-078D","EPOCH":"2026-03-28T08:49:38.889408","MEAN_MOTION":15.53642207,"ECCENTRICITY":0.00051922,"INCLINATION":34.9408,"RA_OF_ASC_NODE":76.0121,"ARG_OF_PERICENTER":107.1152,"MEAN_ANOMALY":253.014,"EPHEMERIS_TYPE":0,"CLASSIFICATION_TYPE":"U","NORAD_CAT_ID":41887,"ELEMENT_SET_NO":999,"REV_AT_EPOCH":51611,"BSTAR":0.00042816803,"MEAN_MOTION_DOT":0.00028284,"MEAN_MOTION_DDOT":0},{"OBJECT_NAME":"CYGFM08","OBJECT_ID":"2016-078E","EPOCH":"2026-03-28T23:10:44.222304","MEAN_MOTION":15.5584593,"ECCENTRICITY":0.00071442,"INCLINATION":34.9444,"RA_OF_ASC_NODE":53.5484,"ARG_OF_PERICENTER":147.4867,"MEAN_ANOMALY":212.6298,"EPHEMERIS_TYPE":0,"CLASSIFICATION_TYPE":"U","NORAD_CAT_ID":41888,"ELEMENT_SET_NO":999,"REV_AT_EPOCH":51645,"BSTAR":0.00044825032,"MEAN_MOTION_DOT":0.00032151,"MEAN_MOTION_DDOT":0},{"OBJECT_NAME":"CYGFM07","OBJECT_ID":"2016-078G","EPOCH":"2026-03-28T22:18:22.160160","MEAN_MOTION":15.559213,"ECCENTRICITY":0.00060887,"INCLINATION":34.9462,"RA_OF_ASC_NODE":42.1917,"ARG_OF_PERICENTER":170.3103,"MEAN_ANOMALY":189.7739,"EPHEMERIS_TYPE":0,"CLASSIFICATION_TYPE":"U","NORAD_CAT_ID":41890,"ELEMENT_SET_NO":999,"REV_AT_EPOCH":51647,"BSTAR":0.0004490751,"MEAN_MOTION_DOT":0.00032291,"MEAN_MOTION_DDOT":0},{"OBJECT_NAME":"CYGFM03","OBJECT_ID":"2016-078H","EPOCH":"2026-03-28T23:09:02.882880","MEAN_MOTION":15.55924061,"ECCENTRICITY":0.00049239,"INCLINATION":34.9417,"RA_OF_ASC_NODE":43.927,"ARG_OF_PERICENTER":157.5354,"MEAN_ANOMALY":202.5586,"EPHEMERIS_TYPE":0,"CLASSIFICATION_TYPE":"U","NORAD_CAT_ID":41891,"ELEMENT_SET_NO":999,"REV_AT_EPOCH":51645,"BSTAR":0.00045961951,"MEAN_MOTION_DOT":0.00033048,"MEAN_MOTION_DDOT":0},{"OBJECT_NAME":"FENGYUN 3D","OBJECT_ID":"2017-072A","EPOCH":"2026-03-28T22:43:00.907392","MEAN_MOTION":14.19720274,"ECCENTRICITY":5.917e-5,"INCLINATION":99.006,"RA_OF_ASC_NODE":60.9493,"ARG_OF_PERICENTER":314.7916,"MEAN_ANOMALY":45.3211,"EPHEMERIS_TYPE":0,"CLASSIFICATION_TYPE":"U","NORAD_CAT_ID":43010,"ELEMENT_SET_NO":999,"REV_AT_EPOCH":43360,"BSTAR":-3.886973e-5,"MEAN_MOTION_DOT":-1.28e-6,"MEAN_MOTION_DDOT":0},{"OBJECT_NAME":"NOAA 20 (JPSS-1)","OBJECT_ID":"2017-073A","EPOCH":"2026-03-28T20:37:28.840512","MEAN_MOTION":14.19540995,"ECCENTRICITY":0.00018838,"INCLINATION":98.7713,"RA_OF_ASC_NODE":28.0585,"ARG_OF_PERICENTER":111.8045,"MEAN_ANOMALY":248.3331,"EPHEMERIS_TYPE":0,"CLASSIFICATION_TYPE":"U","NORAD_CAT_ID":43013,"ELEMENT_SET_NO":999,"REV_AT_EPOCH":43307,"BSTAR":6.2436237e-5,"MEAN_MOTION_DOT":8.8e-7,"MEAN_MOTION_DDOT":0},{"OBJECT_NAME":"GOES 17","OBJECT_ID":"2018-022A","EPOCH":"2026-03-28T14:21:37.751040","MEAN_MOTION":1.00271175,"ECCENTRICITY":0.0001538,"INCLINATION":0.7312,"RA_OF_ASC_NODE":86.9387,"ARG_OF_PERICENTER":236.4458,"MEAN_ANOMALY":348.5274,"EPHEMERIS_TYPE":0,"CLASSIFICATION_TYPE":"U","NORAD_CAT_ID":43226,"ELEMENT_SET_NO":999,"REV_AT_EPOCH":2961,"BSTAR":0,"MEAN_MOTION_DOT":-2.01e-6,"MEAN_MOTION_DDOT":0},{"OBJECT_NAME":"FENGYUN 2H","OBJECT_ID":"2018-050A","EPOCH":"2026-03-28T22:00:24.048000","MEAN_MOTION":1.00270329,"ECCENTRICITY":0.00016997,"INCLINATION":2.824,"RA_OF_ASC_NODE":80.0246,"ARG_OF_PERICENTER":172.853,"MEAN_ANOMALY":342.6097,"EPHEMERIS_TYPE":0,"CLASSIFICATION_TYPE":"U","NORAD_CAT_ID":43491,"ELEMENT_SET_NO":999,"REV_AT_EPOCH":2863,"BSTAR":0,"MEAN_MOTION_DOT":-1.44e-6,"MEAN_MOTION_DDOT":0}]
