METEOSAT-11 (MSG-4)     
1 40732U 15034A   26087.83181222  .00000045  00000+0  00000+0 0  9996
2 40732   2.9995  71.5348 0001779 284.8800 138.5060  1.00273826  6417
ELEKTRO-L 2             
1 41105U 15074A   26087.75582763 -.00000132  00000+0  00000+0 0  9999
2 41105   6.4928  71.4977 0002867 245.3679 126.9051  1.00271736 37704
INSAT-3DR               
1 41752U 16054A   26087.88725138 -.00000096  00000+0  00000+0 0  9994
2 41752   0.1118  87.6678 0012713 195.0765 296.9383  1.00271749 35011
HIMAWARI-9              
1 41836U 16064A   26087.92914051 -.00000294  00000+0  00000+0 0  9997
2 41836   0.0280 132.0980 0001030 233.0858 296.4070  1.00272924 34406
GOES 16                 
1 41866U 16071A   26087.66664723 -.00000110  00000+0  00000+0 0  9994
2 41866   0.1579  85.4996 0002188 233.0864   2.7816  1.00271531 34297
FENGYUN 4A              
1 41882U 16077A   26087.92552503 -.00000375  00000+0  00000+0 0  9992
2 41882   2.1192  81.0805 0007472 136.1134  65.9933  1.00266103 34125
CYGFM05                 
1 41884U 16078A   26087.66815243  .00028540  00000+0  44065-3 0  9995
2 41884  34.9579  72.3676 0005634 119.7594 240.3690 15.53096635516211
CYGFM04                 
1 41885U 16078B   26087.92935291  .00035264  00000+0  47016-3 0  9991
2 41885  34.9340  41.9865 0005604 172.5817 187.4991 15.57042136516465
CYGFM02                 
1 41886U 16078C   26087.93057490  .00038539  00000+0  47343-3 0  9990
2 41886  34.9424  38.4568 0006551 169.7386 190.3474 15.59188724516613
CYGFM01                 
1 41887U 16078D   26087.36781122  .00028284  00000+0  42817-3 0  9991
2 41887  34.9408  76.0121 0005192 107.1152 253.0140 15.53642207516113
CYGFM08                 
1 41888U 16078E   26087.96578961  .00032151  00000+0  44825-3 0  9992
2 41888  34.9444  53.5484 0007144 147.4867 212.6298 15.55845930516457
CYGFM07                 
1 41890U 16078G   26087.92942315  .00032291  00000+0  44908-3 0  9996
2 41890  34.9462  42.1917 0006088 170.3103 189.7739 15.55921300516471
CYGFM03                 
1 41891U 16078H   26087.96461670  .00033048  00000+0  45962-3 0  9993
2 41891  34.9417  43.9270 0004923 157.5354 202.5586 15.55924061516453
FENGYUN 3D              
1 43010U 17072A   26087.94653828 -.00000128  00000+0 -38870-4 0  9995
2 43010  99.0060  60.9493 0000591 314.7916  45.3211 14.19720274433600
NOAA 20 (JPSS-1)        
1 43013U 17073A   26087.85936158  .00000088  00000+0  62436-4 0  9997
2 43013  98.7713  28.0585 0001883 111.8045 248.3331 14.19540995433074
GOES 17                 
1 43226U 18022A   26087.59835360 -.00000201  00000+0  00000+0 0  9994
2 43226   0.7312  86.9387 0001538 236.4458 348.5274  1.00271175 29617
FENGYUN 2H              
1 43491U 18050A   26087.91694500 -.00000144  00000+0  00000+0 0  9990
2 43491   2.8240  80.0246 0001699 172.8530 342.6097  1.00270329 28634
